ZHUHAI-1 01 (CAS-4A)    
1 42761U 17034D   23156.55336107  .00006242  00000+0  31903-3 0  9994
2 42761  43.0129 178.8841 0010935  21.9595 338.1720 15.17243661329865
MAX VALIER SAT          
1 42778U 17036P   23156.58996408  .00020895  00000+0  55367-3 0  9993
2 42778  97.1551 191.7114 0010329 135.8537 224.3535 15.38312085330948
RADFXSAT (FOX-1B)       
1 43017U 17073E   23156.60474786  .00006335  00000+0  44181-3 0  9999
2 43017  97.6321  41.4024 0235493 107.4303 255.2807 14.85911406299462
FOX-1D (AO-92)          
1 43137U 18004AC  23156.15713586  .00032148  00000+0  67610-3 0  9994
2 43137  97.3291 235.2252 0006619 171.8482 188.2876 15.45229115300452
DIWATA-2B               
1 43678U 18084H   23156.53037601  .00001415  00000+0  14050-3 0  9994
2 43678  98.0215 300.2662 0009262 192.3945 167.7047 14.93388772250524
ES'HAIL 2               
1 43700U 18090A   23156.35257507  .00000157  00000+0  00000+0 0  9994
2 43700   0.0213 351.4340 0001876 113.8316 300.9693  1.00270171 16564
FOX-1CLIFF (AO-95)      
1 43770U 18099N   23156.21618122  .00003882  00000+0  31863-3 0  9992
2 43770  97.5725 218.0799 0012460 170.9138 189.2313 14.99722935245814
ITASAT 1                
1 43786U 18099AE  23156.41604944  .00003161  00000+0  26236-3 0  9996
2 43786  97.5768 219.3070 0013469 157.6445 202.5368 14.99419785245889
JY1SAT (JO-97)          
1 43803U 18099AX  23156.44747146  .00005701  00000+0  45367-3 0  9999
2 43803  97.5693 219.3167 0014065 130.1764 230.0694 15.00703524245930
UWE-4                   
1 43880U 18111E   23156.49960237  .00005242  00000+0  40284-3 0  9995
2 43880  97.6319  61.8648 0017269 210.1788 149.8443 15.02045915242615
NEXUS (FO-99)           
1 43937U 19003F   23156.56165466  .00049790  00000+0  83288-3 0  9995
2 43937  97.0854 183.9224 0009462 322.6694  37.3901 15.51694464244247
JAISAT-1                
1 44419U 19038F   23156.45413514  .00020654  00000+0  71617-3 0  9998
2 44419  97.6732 137.7897 0013780 353.6341   6.4721 15.29756008216747
DUCHIFAT-3              
1 44854U 19089C   23156.40647362  .00006097  00000+0  41427-3 0  9993
2 44854  36.9604 161.6834 0010121 224.9035 135.0890 15.06063241191122
CAS-6 (TIANQIN 1)       
1 44881U 19093C   23156.48534936  .00000993  00000+0  12999-3 0  9999
2 44881  97.8617 235.1355 0016098 114.4929 245.7965 14.82510974187064
RS-44 & BREEZE-KM R/B   
1 44909U 19096E   23156.57324825  .00000004  00000+0 -23858-4 0  9998
2 44909  82.5220 355.6649 0216819 213.8946 144.8142 12.79720928160676
BY70-2                  
1 45857U 20042B   23156.52710752  .00015685  00000+0  16269-2 0  9993
2 45857  97.9258 236.3885 0008962  56.3792 303.8279 14.90035033157804
SALSAT                  
1 46495U 20068K   23156.43993597  .00003488  00000+0  23265-3 0  9993
2 46495  97.7703 104.3203 0016396 153.5764 206.6303 15.07628629147303
RADFXSAT-2 (AO-109)     
1 47311U 21002C   23156.28676281  .00022777  00000+0  60124-3 0  9998
2 47311  60.6809 104.2687 0014102 170.2684 189.8686 15.38377572132450
UVSQ-SAT                
1 47438U 21006AB  23156.14859558  .00013752  00000+0  56853-3 0  9994
2 47438  97.3849 213.4308 0011592 122.6240 237.6118 15.24033048130815
DIY-1 (ARDUIQUBE)       
1 47963U 21022AH  23156.25719950  .00206217  00000+0  27766-2 0  9998
2 47963  97.4970  64.2405 0004405  58.8628 301.3059 15.57132187120732
XW-3 (CAS-9)            
1 50466U 21131B   23156.55709834  .00000533  00000+0  18751-3 0  9992
2 50466  98.5518 238.1380 0004731 160.1198 200.0175 14.38907004 75682
TEVEL-3                 
1 50988U 22002E   23156.43292021  .00016984  00000+0  68942-3 0  9995
2 50988  97.4336 223.4816 0006226 269.6246  90.4278 15.24648582 76975
TEVEL-8                 
1 50989U 22002F   23156.45116093  .00017631  00000+0  71688-3 0  9993
2 50989  97.4352 223.5576 0006261 268.1557  91.8963 15.24583876 76976
TEVEL-5                 
1 50998U 22002Q   23156.44941011  .00017581  00000+0  69641-3 0  9998
2 50998  97.4331 223.8678 0007483 263.5471  96.4915 15.25454081 77009
TEVEL-6                 
1 50999U 22002R   23156.44793351  .00017721  00000+0  70192-3 0  9990
2 50999  97.4329 223.8612 0007495 263.2906  96.7479 15.25454312 77003
TEVEL-1                 
1 51013U 22002AF  23156.44236990  .00017030  00000+0  69223-3 0  9995
2 51013  97.4331 223.4356 0006148 268.8908  91.1625 15.24603465 76973
TEVEL-7                 
1 51062U 22002CG  23156.45229213  .00017529  00000+0  71241-3 0  9996
2 51062  97.4349 223.5322 0006262 267.6734  92.3786 15.24600146 76975
TEVEL-4                 
1 51063U 22002CH  23156.52361349  .00017461  00000+0  71070-3 0  9997
2 51063  97.4348 223.5876 0006271 267.4239  92.6280 15.24552437 76989
TEVEL-2                 
1 51069U 22002CP  23156.43476507  .00017061  00000+0  69251-3 0  9990
2 51069  97.4333 223.4553 0006206 269.3211  90.7315 15.24650176 76975
GREENCUBE               
1 53106U 22080B   23149.84195747 -.00000003  00000+0  00000+0 0  9993
2 53106  70.1621 326.0976 0008371 189.0727 170.9782  6.42557054 20576
RS29S (SXC3-2110 CYCLO*)
1 53373U 22096D   23156.56180156  .00028627  00000+0  75912-3 0  9990
2 53373  97.4150  62.7297 0002699 113.7537 246.3991 15.38280952 45900
RS32S (SXC3-212 MONITO*)
1 53374U 22096E   23156.52463708  .00025125  00000+0  68451-3 0  9994
2 53374  97.4129  62.5889 0003089 121.0448 239.1100 15.37469248 45895
RS34S (SXC3-218 KUZBAS*)
1 53375U 22096F   23156.53128624  .00021239  00000+0  61463-3 0  9999
2 53375  97.4155  62.3165 0003025 118.2079 241.9470 15.35619574 45874
RS23S (SXC3-21 UTMN)    
1 53376U 22096G   23156.55774333  .00022259  00000+0  63346-3 0  9991
2 53376  97.4151  62.4273 0002760 114.7986 245.3545 15.36134674 45881
RS28S (SXC3-214 MIET-A*)
1 53377U 22096H   23156.53801061  .00019605  00000+0  57442-3 0  9990
2 53377  97.4161  62.3142 0002910 119.1648 240.9887 15.35246127 45873
RS26S (KAI-1)           
1 53378U 22096J   23156.56619442  .00016963  00000+0  51964-3 0  9991
2 53378  97.4176  62.1377 0002893 115.8523 244.3018 15.33867952 45869
RS19S (SXC3-219 ISOI)   
1 53381U 22096M   23156.55702018  .00020996  00000+0  59942-3 0  9991
2 53381  97.4150  62.5763 0005663  99.8550 260.3334 15.36035286 45899
RS21S (CUBESX-HSE-2)    
1 53383U 22096P   23156.53305091  .00021466  00000+0  60466-3 0  9997
2 53383  97.4154  62.6192 0006203 100.3658 259.8286 15.36447528 45895
RS30S (SXC3-217 SIREN)  
1 53384U 22096Q   23156.55353276  .00018602  00000+0  54917-3 0  9990
2 53384  97.4167  62.4511 0006139  97.5737 262.6203 15.35004528 45884
RS20S (GEOSCAN-EDELVEIS)
1 53385U 22096R   23156.53996349  .00030334  00000+0  76474-3 0  9991
2 53385  97.4144  63.1991 0006471  99.0153 261.1825 15.39804266 45962
RS33S (SXC3-215 VIZARD) 
1 53386U 22096S   23156.54646844  .00038505  00000+0  86442-3 0  9999
2 53386  97.4141  63.7969 0007151  98.5755 261.6303 15.43253241 45994
CAS-5A (FO-118)         
1 54684U 22167C   23156.57545379  .00009741  00000+0  54222-3 0  9995
2 54684  97.5619 294.2355 0013569  21.0685 339.1103 15.13772139 26920
